[{"OBJECT_NAME":"YAOGAN-30 03A","OBJECT_ID":"2017-075A","EPOCH":"2026-03-09T16:17:14.366400","MEAN_MOTION":15.02242801,"ECCENTRICITY":0.00017413,"INCLINATION":34.9939,"RA_OF_ASC_NODE":156.9097,"ARG_OF_PERICENTER":176.2032,"MEAN_ANOMALY":183.8689,"EPHEMERIS_TYPE":0,"CLASSIFICATION_TYPE":"U","NORAD_CAT_ID":43028,"ELEMENT_SET_NO":999,"REV_AT_EPOCH":45227,"BSTAR":0.00031198587,"MEAN_MOTION_DOT":4.172e-5,"MEAN_MOTION_DDOT":0},{"OBJECT_NAME":"IRIDIUM 5","OBJECT_ID":"1997-020D","EPOCH":"2026-03-09T18:04:20.752608","MEAN_MOTION":14.97634702,"ECCENTRICITY":0.00996159,"INCLINATION":86.3893,"RA_OF_ASC_NODE":320.9794,"ARG_OF_PERICENTER":262.9032,"MEAN_ANOMALY":96.0864,"EPHEMERIS_TYPE":0,"CLASSIFICATION_TYPE":"U","NORAD_CAT_ID":24795,"ELEMENT_SET_NO":999,"REV_AT_EPOCH":52516,"BSTAR":0.00037671843,"MEAN_MOTION_DOT":4.91e-5,"MEAN_MOTION_DDOT":0}]
